BEIDOU-2 IGSO-5         
1 37948U 11073A   26175.65702808 -.00000196  00000+0  00000+0 0  9995
2 37948  47.6633 271.4526 0114223 222.0346 107.5350  1.00272136 53204
LUCH-5A                 
1 37951U 11074B   26174.60043354 -.00000050  00000+0  00000+0 0  9997
2 37951   8.7707  73.7147 0002596  29.4459 191.6849  1.00271735 53114
BEIDOU-2 G5             
1 38091U 12008A   26175.18205334  .00000061  00000+0  00000+0 0  9994
2 38091   3.5920  69.6650 0008856 275.2779  51.6267  1.00274587 52435
BEIDOU-2 M3             
1 38250U 12018A   26174.63219166 -.00000109  00000+0  00000+0 0  9993
2 38250  55.7518 304.6576 0020193 273.5233  86.2361  1.86229600 96063
BEIDOU-2 M4             
1 38251U 12018B   26174.56448814 -.00000108  00000+0  00000+0 0  9999
2 38251  55.6516 303.8740 0011628 274.1207  85.7373  1.86229575 96064
SES-5                   
1 38652U 12036A   26175.17139330  .00000041  00000+0  00000+0 0  9997
2 38652   0.0460 316.5083 0002026 134.5743 247.9235  1.00272305 44526
BEIDOU-2 M6             
1 38775U 12050B   26174.27419468 -.00000094  00000+0  00000+0 0  9991
2 38775  56.5495  62.6929 0013565 357.9958   2.0345  1.86231038 93420
GSAT-10                 
1 38779U 12051B   26175.18682003 -.00000158  00000+0  00000+0 0  9995
2 38779   0.0635 260.2141 0008059 189.6185 332.7865  1.00272236 50165
NAVSTAR 67 (USA 239)    
1 38833U 12053A   26174.79756486  .00000054  00000+0  00000+0 0  9995
2 38833  53.5871 143.3285 0180676  65.8518 296.0006  2.00567625 99579
GSAT0103 (GALILEO-FM3)  
1 38857U 12055A   26174.92807749 -.00000034  00000+0  00000+0 0  9996
2 38857  55.8103 101.3605 0004798 306.1762  53.7546  1.70473530 85120
BEIDOU-2 G6             
1 38953U 12059A   26175.11571288 -.00000171  00000+0  00000+0 0  9997
2 38953   4.4398  73.4545 0009797 327.8672 356.6455  1.00271582 49972
LUCH-5B                 
1 38977U 12061A   26174.95329419 -.00000139  00000+0  00000+0 0  9998
2 38977  10.4988  49.8169 0002410 139.8297  49.3891  1.00272473 49675
COSMOS 2485 [GLONASS-M] 
1 39155U 13019A   26174.01037465 -.00000064  00000+0  00000+0 0  9992
2 39155  65.4230  73.4089 0022970 233.4895 126.3311  2.13103142102401
NAVSTAR 68 (USA 242)    
1 39166U 13023A   26174.16610834 -.00000066  00000+0  00000+0 0  9994
2 39166  54.4992 268.7299 0141475  51.0504 310.2345  2.00563498 96000
IRNSS-1A                
1 39199U 13034A   26169.89544831  .00000051  00000+0  00000+0 0  9992
2 39199  35.7241  63.8469 0017589 183.2529  37.3106  1.00275723 47380
NAVSTAR 69 (USA 248)    
1 39533U 14008A   26174.66641729  .00000066  00000+0  00000+0 0  9997
2 39533  53.6556 149.0554 0084224 231.3654 127.8599  2.00560255 89819
ASTRA 5B                
1 39617U 14011B   26175.17511998  .00000144  00000+0  00000+0 0  9992
2 39617   0.0567 319.6268 0002165 114.1004 285.1156  1.00271131 44738
COSMOS 2492 [GLONASS-M] 
1 39620U 14012A   26174.43850674 -.00000080  00000+0  00000+0 0  9992
2 39620  65.2936 313.7229 0010200 323.1119  36.8094  2.13103114 95373
IRNSS-1B                
1 39635U 14017A   26173.75560031  .00000117  00000+0  00000+0 0  9992
2 39635  28.9065 240.3095 0023496 164.9008 193.0039  1.00268591 44840
LUCH-5V                 
1 39727U 14023A   26175.11796622 -.00000265  00000+0  00000+0 0  9995
2 39727   5.1506  69.6806 0002285  46.6072 293.2066  1.00272561 44420
NAVSTAR 70 (USA 251)    
1 39741U 14026A   26173.94481660 -.00000099  00000+0  00000+0 0  9991
2 39741  56.4953 331.2933 0038130 326.4275  33.3264  2.00560629 88654
COSMOS 2500 [GLONASS-M] 
1 40001U 14032A   26174.60818388 -.00000081  00000+0  00000+0 0  9995
2 40001  65.2280 313.4639 0007602 185.3509 174.6327  2.13105776 93593
NAVSTAR 71 (USA 256)    
1 40105U 14045A   26175.03379093 -.00000063  00000+0  00000+0 0  9997
2 40105  55.3575  88.1921 0033600 118.2393 242.1018  2.00558930 86217
GSAT0201 (GALILEO 5)    
1 40128U 14050A   26174.88474382 -.00000089  00000+0  00000+0 0  9995
2 40128  48.8679 273.1615 1675606 179.6526 180.5284  1.85520117 78442
GSAT0202 (GALILEO 6)    
1 40129U 14050B   26174.06229159 -.00000091  00000+0  00000+0 0  9999
2 40129  48.8856 272.2808 1676647 180.3494 179.5640  1.85520676 80596
IRNSS-1C                
1 40269U 14061A   26174.91613389 -.00000157  00000+0  00000+0 0  9995
2 40269   6.5342  88.8035 0022624   3.2397 232.7468  1.00268265 42755
NAVSTAR 72 (USA 258)    
1 40294U 14068A   26174.90317331 -.00000094  00000+0  00000+0 0  9997
2 40294  56.9922  30.6959 0067192  70.8638 289.9134  2.00576712 85349
NAVSTAR 73 (USA 260)    
1 40534U 15013A   26175.04292286  .00000077  00000+0  00000+0 0  9992
2 40534  53.1675 203.8938 0109701  40.1849 320.6852  2.00551017 81963
GSAT0203 (GALILEO 7)    
1 40544U 15017A   26173.49205961 -.00000098  00000+0  00000+0 0  9992
2 40544  56.7854 341.4508 0002098 272.3017  87.6709  1.70476233 69296
GSAT0204 (GALILEO 8)    
1 40545U 15017B   26174.33444954 -.00000098  00000+0  00000+0 0  9994
2 40545  56.7911 341.4465 0002094 240.9399 119.0360  1.70475830 32355
