OBJECT_NAME,OBJECT_ID,EPOCH,MEAN_MOTION,ECCENTRICITY,INCLINATION,RA_OF_ASC_NODE,ARG_OF_PERICENTER,MEAN_ANOMALY,EPHEMERIS_TYPE,CLASSIFICATION_TYPE,NORAD_CAT_ID,ELEMENT_SET_NO,REV_AT_EPOCH,BSTAR,MEAN_MOTION_DOT,MEAN_MOTION_DDOT
BEIDOU-2 IGSO-5 (C10),2011-073A,2026-06-24T15:46:07.226112,1.00272136,.0114223,47.6633,271.4526,222.0346,107.5350,0,U,37948,999,5320,0,-.196E-5,0
LUCH 5A (SDCM/PRN 140),2011-074B,2026-06-23T14:24:37.457856,1.00271735,.00025962,8.7707,73.7147,29.4459,191.6849,0,U,37951,999,5311,0,-.5E-6,0
BEIDOU-2 G5 (C05),2012-008A,2026-06-24T04:22:09.408576,1.00274587,.00088561,3.5920,69.6650,275.2779,51.6267,0,U,38091,999,5243,0,.61E-6,0
BEIDOU-2 M3 (C11),2012-018A,2026-06-23T15:10:21.359424,1.86229600,.00201939,55.7518,304.6576,273.5233,86.2361,0,U,38250,999,9606,0,-.109E-5,0
BEIDOU-2 M4 (C12),2012-018B,2026-06-23T13:32:51.775296,1.86229575,.0011628,55.6516,303.8740,274.1207,85.7373,0,U,38251,999,9606,0,-.108E-5,0
SES-5 (EGNOS/PRN 136),2012-036A,2026-06-24T04:06:48.381120,1.00272305,.00020263,0.0460,316.5083,134.5743,247.9235,0,U,38652,999,4452,0,.41E-6,0
BEIDOU-2 M6 (C14),2012-050B,2026-06-23T06:34:50.420352,1.86231038,.00135652,56.5495,62.6929,357.9958,2.0345,0,U,38775,999,9342,0,-.94E-6,0
GSAT-10 (GAGAN/PRN 128),2012-051B,2026-06-24T04:29:01.250592,1.00272236,.00080596,0.0635,260.2141,189.6185,332.7865,0,U,38779,999,5016,0,-.158E-5,0
GPS BIIF-3  (PRN 24),2012-053A,2026-06-23T19:08:29.603904,2.00567625,.01806762,53.5871,143.3285,65.8518,296.0006,0,U,38833,999,9957,0,.54E-6,0
GSAT0103 (GALILEO-FM3),2012-055A,2026-06-23T22:16:25.895136,1.70473530,.00047987,55.8103,101.3605,306.1762,53.7546,0,U,38857,999,8512,0,-.34E-6,0
BEIDOU-2 G6 (C02),2012-059A,2026-06-24T02:46:37.592832,1.00271582,.00097976,4.4398,73.4545,327.8672,356.6455,0,U,38953,999,4997,0,-.171E-5,0
LUCH 5B (SDCM/PRN 125),2012-061A,2026-06-23T22:52:44.618016,1.00272473,.00024109,10.4988,49.8169,139.8297,49.3891,0,U,38977,999,4967,0,-.139E-5,0
COSMOS 2485 (747),2013-019A,2026-06-23T00:14:56.369760,2.13103142,.00229704,65.4230,73.4089,233.4895,126.3311,0,U,39155,999,10240,0,-.64E-6,0
GPS BIIF-4  (PRN 27),2013-023A,2026-06-23T03:59:11.760576,2.00563498,.01414751,54.4992,268.7299,51.0504,310.2345,0,U,39166,999,9600,0,-.66E-6,0
IRNSS-1A,2013-034A,2026-06-18T21:29:26.733984,1.00275723,.00175894,35.7241,63.8469,183.2529,37.3106,0,U,39199,999,4738,0,.51E-6,0
GPS BIIF-5  (PRN 30),2014-008A,2026-06-23T15:59:38.453856,2.00560255,.00842246,53.6556,149.0554,231.3654,127.8599,0,U,39533,999,8981,0,.66E-6,0
ASTRA 5B (EGNOS/PRN 123),2014-011B,2026-06-24T04:12:10.366272,1.00271131,.0002165,0.0567,319.6268,114.1004,285.1156,0,U,39617,999,4473,0,.144E-5,0
COSMOS 2492 (754),2014-012A,2026-06-23T10:31:26.982336,2.13103114,.00102007,65.2936,313.7229,323.1119,36.8094,0,U,39620,999,9537,0,-.8E-6,0
IRNSS-1B,2014-017A,2026-06-22T18:08:03.866784,1.00268591,.00234964,28.9065,240.3095,164.9008,193.0039,0,U,39635,999,4484,0,.117E-5,0
LUCH 5V (SDCM/PRN 141),2014-023A,2026-06-24T02:49:52.281408,1.00272561,.00022853,5.1506,69.6806,46.6072,293.2066,0,U,39727,999,4442,0,-.265E-5,0
GPS BIIF-6  (PRN 06),2014-026A,2026-06-22T22:40:32.154240,2.00560629,.00381306,56.4953,331.2933,326.4275,33.3264,0,U,39741,999,8865,0,-.99E-6,0
COSMOS 2500 (755),2014-032A,2026-06-23T14:35:47.087232,2.13105776,.00076024,65.2280,313.4639,185.3509,174.6327,0,U,40001,999,9359,0,-.81E-6,0
GPS BIIF-7  (PRN 09),2014-045A,2026-06-24T00:48:39.536352,2.00558930,.00336006,55.3575,88.1921,118.2393,242.1018,0,U,40105,999,8621,0,-.63E-6,0
GSAT0201 (GALILEO 5),2014-050A,2026-06-23T21:14:01.866048,1.85520117,.16756065,48.8679,273.1615,179.6526,180.5284,0,U,40128,999,7844,0,-.89E-6,0
GSAT0202 (GALILEO 6),2014-050B,2026-06-23T01:29:41.993376,1.85520676,.16766476,48.8856,272.2808,180.3494,179.5640,0,U,40129,999,8059,0,-.91E-6,0
IRNSS-1C,2014-061A,2026-06-23T21:59:13.968096,1.00268265,.00226241,6.5342,88.8035,3.2397,232.7468,0,U,40269,999,4275,0,-.157E-5,0
GPS BIIF-8  (PRN 03),2014-068A,2026-06-23T21:40:34.173984,2.00576712,.00671924,56.9922,30.6959,70.8638,289.9134,0,U,40294,999,8534,0,-.94E-6,0
GPS BIIF-9  (PRN 26),2015-013A,2026-06-24T01:01:48.535104,2.00551017,.01097013,53.1675,203.8938,40.1849,320.6852,0,U,40534,999,8196,0,.77E-6,0
GSAT0203 (GALILEO 7),2015-017A,2026-06-22T11:48:33.950304,1.70476233,.00020984,56.7854,341.4508,272.3017,87.6709,0,U,40544,999,6929,0,-.98E-6,0
GSAT0204 (GALILEO 8),2015-017B,2026-06-23T08:01:36.440256,1.70475830,.00020949,56.7911,341.4465,240.9399,119.0360,0,U,40545,999,3235,0,-.98E-6,0
